IRIDIUM 150             
1 43257U 18030J   25256.16712350 -.00000018  00000+0 -13334-4 0  9996
2 43257  86.3950  46.2526 0002289  89.7930 270.3528 14.34217210390459
IRIDIUM 143             
1 43258U 18030K   25256.14809707  .00000069  00000+0  17548-4 0  9993
2 43258  86.3956  46.3419 0002579  87.4136 272.7355 14.34218042390383
IRIDIUM 161             
1 43478U 18047C   25256.26163953  .00000321  00000+0  89377-4 0  9994
2 43478  86.4536 204.1344 0002124  87.4163 272.7281 14.43279281385192
IRIDIUM 152             
1 43479U 18047D   25256.26035219  .00000240  00000+0  78475-4 0  9995
2 43479  86.4011 203.9959 0002250  89.3175 270.8278 14.34217943382799
IRIDIUM 147             
1 43480U 18047E   25256.12715670  .00000212  00000+0  68542-4 0  9991
2 43480  86.4013 204.0517 0002156  82.9213 277.2228 14.34217764382777
IRIDIUM 110             
1 43481U 18047F   25256.13349510  .00000205  00000+0  66082-4 0  9998
2 43481  86.4013 204.1334 0001802  90.9569 269.1834 14.34219560382764
IRIDIUM 162             
1 43482U 18047G   25256.11666663  .00000246  00000+0  67236-4 0  9995
2 43482  86.4534 204.0893 0002173  92.0448 268.1002 14.43276928385167
IRIDIUM 160             
1 43569U 18061A   25256.00956555  .00000171  00000+0  54124-4 0  9996
2 43569  86.4047 172.6285 0001929  84.8410 275.3006 14.34218243373643
